sat28908
1 28908U 05048A   20046.82275191  .00000039  00000-0  17504-3 0  9993
2 28908  82.4726 346.8396 0006671 302.5696 116.7801 12.55498962648595
